OBJECT_NAME,OBJECT_ID,EPOCH,MEAN_MOTION,ECCENTRICITY,INCLINATION,RA_OF_ASC_NODE,ARG_OF_PERICENTER,MEAN_ANOMALY,EPHEMERIS_TYPE,CLASSIFICATION_TYPE,NORAD_CAT_ID,ELEMENT_SET_NO,REV_AT_EPOCH,BSTAR,MEAN_MOTION_DOT,MEAN_MOTION_DDOT
TIBA-1,2019-080A,2026-06-10T06:36:54.692064,1.00275021,.0002096,0.0511,351.4900,111.8791,290.0371,0,U,44800,999,2398,0,.173E-5,0
INMARSAT GX5,2019-080B,2026-06-11T13:17:43.820160,1.00271082,.00022666,0.0414,20.3553,58.2485,31.7588,0,U,44801,999,673,0,.92E-6,0
JCSAT-18 (KACIFIC 1),2019-091A,2026-06-10T19:08:16.516032,1.00268324,.00005905,0.0107,325.8885,259.3585,110.9752,0,U,44868,999,2394,0,0,0
ELEKTRO-L 3,2019-095A,2026-06-11T15:19:01.591968,1.00271958,.00012224,0.2412,81.4229,354.7820,129.4878,0,U,44903,999,2365,0,-.8E-6,0
SHIJIAN-20 (SJ-20),2019-097A,2026-06-10T10:04:47.206848,1.00275543,.0013823,4.9007,75.1442,53.8399,325.7999,0,U,44910,999,2363,0,.151E-5,0
TJS-5,2020-002A,2026-06-09T10:25:36.238080,1.00273083,.0007543,0.0306,290.7235,116.5233,114.4723,0,U,44978,999,2363,0,-.325E-5,0
GSAT-30,2020-005A,2026-06-09T03:27:54.806976,1.00269386,.00034085,0.0531,105.7770,339.2323,307.4766,0,U,45026,999,2342,0,-.147E-5,0
EUTELSAT KONNECT,2020-005B,2026-06-09T03:06:19.377216,1.00273234,.00014502,0.0706,99.2729,119.5425,92.5263,0,U,45027,999,2425,0,.67E-6,0
JCSAT-17,2020-013A,2026-06-11T08:45:31.322304,1.00272821,.00024663,5.3924,356.8069,81.5528,88.7524,0,U,45245,999,2317,0,-.305E-5,0
GEO-KOMPSAT-2B,2020-013B,2026-06-09T19:04:50.104704,1.00269964,.0000357,0.0421,156.7250,146.7417,9.1642,0,U,45246,999,2320,0,-.326E-5,0
BEIDOU-3 G2,2020-017A,2026-06-11T15:20:16.472256,1.00272993,.00023247,2.8520,47.2486,31.4900,131.3790,0,U,45344,999,2320,0,-.126E-5,0
AEHF-6 (USA 298),2020-022B,2026-06-11T13:53:48.928128,1.00273760,.00431773,2.5613,301.0641,17.1799,287.8899,0,U,45465,999,2295,0,-.281E-5,0
BEIDOU-3 G3,2020-040A,2026-06-11T15:49:20.916768,1.00269904,.00026186,2.4324,67.4380,337.6843,202.7876,0,U,45807,999,2201,0,-.338E-5,0
APSTAR-6D,2020-045A,2026-06-09T16:33:34.992576,1.00268962,.00021036,0.0502,104.3507,344.4035,191.7177,0,U,45863,999,2178,0,-.301E-5,0
KOREASAT 116,2020-048A,2026-06-11T13:47:51.136224,1.00271063,.00008071,0.0096,319.5906,117.4374,146.0788,0,U,45920,999,2158,0,-.345E-5,0
EXPRESS 103,2020-053A,2026-06-11T16:25:07.649184,1.00271788,.00003631,0.0129,278.3767,127.5408,196.9068,0,U,45985,999,2159,0,-.264E-5,0
EXPRESS 80,2020-053B,2026-06-11T01:22:30.358848,1.00270979,.00024412,0.0255,314.7601,201.8590,203.3920,0,U,45986,999,2157,0,0,0
BSAT-4B,2020-056A,2026-06-09T12:08:55.597920,1.00273071,.00037947,0.0407,168.6637,305.2086,76.0750,0,U,46112,999,2131,0,-.333E-5,0
MEV-2,2020-056B,2026-06-11T06:23:47.656320,1.00272584,.00002867,0.0126,323.5521,194.0839,196.9216,0,U,46113,999,8044,0,.6E-7,0
GALAXY 30 (G-30),2020-056C,2026-06-11T09:46:38.851968,1.00273404,.0001944,0.0017,357.0112,77.5372,206.8848,0,U,46114,999,2123,0,.53E-6,0
GAOFEN-13 01,2020-071A,2026-06-11T16:14:27.555648,1.00273633,.00413132,0.5063,84.9078,123.4947,53.4355,0,U,46610,999,2086,0,-.346E-5,0
TIANTONG-1 2,2020-082A,2026-06-11T15:33:00.250848,1.00272421,.00010861,0.7981,326.6574,95.6245,195.9022,0,U,46916,999,2059,0,-.339E-5,0
LUCAS (JDRS-1),2020-089A,2026-06-11T13:40:27.986304,1.00272096,.00021629,0.0192,287.0044,143.6655,125.1643,0,U,47202,999,2036,0,-.219E-5,0
SXM-7,2020-096A,2026-06-10T21:26:29.059296,1.00270630,.00040324,0.0421,136.2639,351.8138,7.6481,0,U,47240,999,738,0,-.188E-5,0
CMS-01,2020-099A,2026-06-11T15:30:24.704064,1.00271603,.00037057,0.0835,97.4099,180.4045,297.7719,0,U,47256,999,2014,0,-.148E-5,0
TURKSAT 5A,2021-001A,2026-06-10T01:27:43.057728,1.00271427,.00001307,0.0226,63.8245,109.3639,138.1054,0,U,47306,999,1989,0,.172E-5,0
TIANTONG-1 3,2021-003A,2026-06-11T15:20:38.936256,1.00271674,.00033066,1.7606,338.9334,108.7376,124.0254,0,U,47321,999,1990,0,-.14E-5,0
TJS-6,2021-010A,2026-06-10T19:16:23.238336,1.00277302,.00036447,0.2680,264.4395,214.2589,248.1189,0,U,47613,999,1974,0,.62E-6,0
SBIRS GEO-5 (USA 315),2021-042A,2026-06-11T11:58:49.042272,1.00271347,.00013974,5.1114,329.0770,122.1613,82.1263,0,U,48618,999,1871,0,-.255E-5,0
FENGYUN 4B,2021-047A,2026-06-11T13:44:28.960224,1.00262382,.0005098,0.1386,76.7708,285.4743,208.2711,0,U,48808,999,1851,0,-.311E-5,0
SXM-8,2021-049A,2026-06-11T12:50:25.494720,1.00270287,.00047626,0.0200,15.3455,17.1052,334.8965,0,U,48838,999,1852,0,-.188E-5,0
TIANLIAN 1-05,2021-063A,2026-06-10T17:30:37.750176,1.00271048,.00007331,1.5763,80.7547,317.9188,139.8896,0,U,49011,999,1801,0,.125E-5,0
